[{"OBJECT_NAME":"STARLINK-33590","OBJECT_ID":"2025-123AB","EPOCH":"2026-03-09T17:12:40.552992","MEAN_MOTION":14.9832798,"ECCENTRICITY":0.00034921,"INCLINATION":70.0034,"RA_OF_ASC_NODE":194.3359,"ARG_OF_PERICENTER":277.6147,"MEAN_ANOMALY":82.4615,"EPHEMERIS_TYPE":0,"CLASSIFICATION_TYPE":"U","NORAD_CAT_ID":64316,"ELEMENT_SET_NO":999,"REV_AT_EPOCH":4162,"BSTAR":0.0003774133,"MEAN_MOTION_DOT":4.413e-5,"MEAN_MOTION_DDOT":0},{"OBJECT_NAME":"COSMOS 397 DEB","OBJECT_ID":"1971-015AM","EPOCH":"2026-03-09T10:35:37.503456","MEAN_MOTION":13.78905525,"ECCENTRICITY":0.05800552,"INCLINATION":65.645,"RA_OF_ASC_NODE":106.5344,"ARG_OF_PERICENTER":135.5672,"MEAN_ANOMALY":229.3475,"EPHEMERIS_TYPE":0,"CLASSIFICATION_TYPE":"U","NORAD_CAT_ID":5187,"ELEMENT_SET_NO":999,"REV_AT_EPOCH":65826,"BSTAR":0.00070809772,"MEAN_MOTION_DOT":2.512e-5,"MEAN_MOTION_DDOT":0}]
